[{"OBJECT_NAME":"STARLINK-5796","OBJECT_ID":"2023-037C","EPOCH":"2026-03-09T21:17:37.878144","MEAN_MOTION":14.98333112,"ECCENTRICITY":0.00025469,"INCLINATION":69.9996,"RA_OF_ASC_NODE":304.0841,"ARG_OF_PERICENTER":265.0751,"MEAN_ANOMALY":95.0118,"EPHEMERIS_TYPE":0,"CLASSIFICATION_TYPE":"U","NORAD_CAT_ID":55916,"ELEMENT_SET_NO":999,"REV_AT_EPOCH":16351,"BSTAR":-1.7216849e-5,"MEAN_MOTION_DOT":-2.98e-6,"MEAN_MOTION_DDOT":0},{"OBJECT_NAME":"TITAN 4B DEB","OBJECT_ID":"2000-047E","EPOCH":"2026-03-09T14:16:43.154688","MEAN_MOTION":14.95842861,"ECCENTRICITY":0.0051888,"INCLINATION":67.9936,"RA_OF_ASC_NODE":132.6415,"ARG_OF_PERICENTER":76.3882,"MEAN_ANOMALY":356.6211,"EPHEMERIS_TYPE":0,"CLASSIFICATION_TYPE":"U","NORAD_CAT_ID":40528,"ELEMENT_SET_NO":999,"REV_AT_EPOCH":59773,"BSTAR":6.4855e-5,"MEAN_MOTION_DOT":6.21e-6,"MEAN_MOTION_DDOT":0}]
